IRIDIUM 921 [-]         
1 24873U 97034E   24062.78795860  .00023666  00000+0  74940-3 0  9990
2 24873  86.3882 340.4980 0002217   0.9571 359.1683 15.32622249458854
IRIDIUM 26 [-]          
1 24903U 97043A   24062.73829924  .00000489  00000+0  16099-3 0  9997
2 24903  86.3957 308.4537 0001973  90.5547 269.5876 14.36227650389052
IRIDIUM 22 [-]          
1 24907U 97043E   24062.78155622  .00000429  00000+0  14354-3 0  9999
2 24907  86.3969 311.5885 0002111  84.2734 275.8703 14.35123363389147
DUMMY MASS 1 [-]        
1 24925U 97048A   24062.87555511  .00000670  00000+0  73313-4 0  9994
2 24925  86.3399 353.1028 0007942  33.8336 326.3394 14.86075025435114
DUMMY MASS 2 [-]        
1 24926U 97048B   24062.82759186  .00000680  00000+0  74897-4 0  9993
2 24926  86.3399 354.6480 0009089  41.6511 318.5404 14.85834310434897
IRIDIUM 29 [-]          
1 24944U 97051A   24062.81803372  .00000525  00000+0  17537-3 0  9998
2 24944  86.4010 341.5004 0002203  78.9667 281.1777 14.35580048385626
IRIDIUM 33 [-]          
1 24946U 97051C   24062.81622759  .00000368  00000+0  12423-3 0  9992
2 24946  86.3924 340.7614 0008184 161.5466 198.6028 14.34275246385169
IRIDIUM 28 [-]          
1 24948U 97051E   24062.82259866  .00000527  00000+0  17280-3 0  9993
2 24948  86.4012 339.2861 0002087  96.6417 263.5017 14.36528658386157
